{
  "links" : {
    "next" : "https://api.nasa.gov/neo/rest/v1/feed?start_date=2009-03-16&end_date=2009-03-16&detailed=true&api_key=t0TVs3DtDT2H8Oy2Zy8m2eVrNsAVKAexjcZXUckd",
    "prev" : "https://api.nasa.gov/neo/rest/v1/feed?start_date=2009-03-14&end_date=2009-03-14&detailed=true&api_key=t0TVs3DtDT2H8Oy2Zy8m2eVrNsAVKAexjcZXUckd",
    "self" : "https://api.nasa.gov/neo/rest/v1/feed?start_date=2009-03-15&end_date=2009-03-15&detailed=true&api_key=t0TVs3DtDT2H8Oy2Zy8m2eVrNsAVKAexjcZXUckd"
  },
  "element_count" : 4,
  "near_earth_objects" : {
    "2009-03-15" : [ {
      "links" : {
        "self" : "https://api.nasa.gov/neo/rest/v1/neo/3454525?api_key=t0TVs3DtDT2H8Oy2Zy8m2eVrNsAVKAexjcZXUckd"
      },
      "neo_reference_id" : "3454525",
      "name" : "(2009 FQ)",
      "nasa_jpl_url" : "http://ssd.jpl.nasa.gov/sbdb.cgi?sstr=3454525",
      "absolute_magnitude_h" : 25.7,
      "estimated_diameter" : {
        "kilometers" : {
          "estimated_diameter_min" : 0.0192555078,
          "estimated_diameter_max" : 0.0430566244
        },
        "meters" : {
          "estimated_diameter_min" : 19.2555078188,
          "estimated_diameter_max" : 43.0566244241
        },
        "miles" : {
          "estimated_diameter_min" : 0.0119648141,
          "estimated_diameter_max" : 0.0267541378
        },
        "feet" : {
          "estimated_diameter_min" : 63.1742402722,
          "estimated_diameter_max" : 141.2618956756
        }
      },
      "is_potentially_hazardous_asteroid" : false,
      "close_approach_data" : [ {
        "close_approach_date" : "2009-03-15",
        "epoch_date_close_approach" : 1237100400000,
        "relative_velocity" : {
          "kilometers_per_second" : "6.6887132612",
          "kilometers_per_hour" : "24079.3677402326",
          "miles_per_hour" : "14961.9826939239"
        },
        "miss_distance" : {
          "astronomical" : "0.0392663787",
          "lunar" : "15.2746210098",
          "kilometers" : "5874166.5",
          "miles" : "3650037.75"
        },
        "orbiting_body" : "Earth"
      } ],
      "orbital_data" : {
        "orbit_id" : "8",
        "orbit_determination_date" : "2017-04-06 09:01:00",
        "orbit_uncertainty" : "8",
        "minimum_orbit_intersection" : ".0363903",
        "jupiter_tisserand_invariant" : "3.890",
        "epoch_osculation" : "2454909.5",
        "eccentricity" : ".441683775071921",
        "semi_major_axis" : "1.838368470788031",
        "inclination" : "6.723283587558233",
        "ascending_node_longitude" : "354.7518599835834",
        "orbital_period" : "910.4314913575968",
        "perihelion_distance" : "1.026390944637179",
        "perihelion_argument" : "168.8188972367241",
        "aphelion_distance" : "2.650345996938884",
        "perihelion_time" : "2454896.621141972085",
        "mean_anomaly" : "5.09251814558371",
        "mean_motion" : ".3954169022242226",
        "equinox" : "J2000"
      }
    }, {
      "links" : {
        "self" : "https://api.nasa.gov/neo/rest/v1/neo/3454895?api_key=t0TVs3DtDT2H8Oy2Zy8m2eVrNsAVKAexjcZXUckd"
      },
      "neo_reference_id" : "3454895",
      "name" : "(2009 FZ10)",
      "nasa_jpl_url" : "http://ssd.jpl.nasa.gov/sbdb.cgi?sstr=3454895",
      "absolute_magnitude_h" : 25.5,
      "estimated_diameter" : {
        "kilometers" : {
          "estimated_diameter_min" : 0.0211132445,
          "estimated_diameter_max" : 0.0472106499
        },
        "meters" : {
          "estimated_diameter_min" : 21.113244479,
          "estimated_diameter_max" : 47.2106498806
        },
        "miles" : {
          "estimated_diameter_min" : 0.0131191578,
          "estimated_diameter_max" : 0.0293353287
        },
        "feet" : {
          "estimated_diameter_min" : 69.2691770164,
          "estimated_diameter_max" : 154.8905885541
        }
      },
      "is_potentially_hazardous_asteroid" : false,
      "close_approach_data" : [ {
        "close_approach_date" : "2009-03-15",
        "epoch_date_close_approach" : 1237100400000,
        "relative_velocity" : {
          "kilometers_per_second" : "13.3212324764",
          "kilometers_per_hour" : "47956.4369152189",
          "miles_per_hour" : "29798.2649265703"
        },
        "miss_distance" : {
          "astronomical" : "0.0162415751",
          "lunar" : "6.3179726601",
          "kilometers" : "2429705",
          "miles" : "1509748.75"
        },
        "orbiting_body" : "Earth"
      } ],
      "orbital_data" : {
        "orbit_id" : "10",
        "orbit_determination_date" : "2017-04-06 09:00:55",
        "orbit_uncertainty" : "8",
        "minimum_orbit_intersection" : ".00928086",
        "jupiter_tisserand_invariant" : "3.461",
        "epoch_osculation" : "2454915.5",
        "eccentricity" : ".5972295100072534",
        "semi_major_axis" : "2.131561078855702",
        "inclination" : "6.455762355145728",
        "ascending_node_longitude" : "177.8267364588254",
        "orbital_period" : "1136.698009157808",
        "perihelion_distance" : ".8585299001801785",
        "perihelion_argument" : "304.4172633133913",
        "aphelion_distance" : "3.404592257531224",
        "perihelion_time" : "2454869.085485335455",
        "mean_anomaly" : "14.69979286021294",
        "mean_motion" : ".3167068096360335",
        "equinox" : "J2000"
      }
    }, {
      "links" : {
        "self" : "https://api.nasa.gov/neo/rest/v1/neo/2014402?api_key=t0TVs3DtDT2H8Oy2Zy8m2eVrNsAVKAexjcZXUckd"
      },
      "neo_reference_id" : "2014402",
      "name" : "14402 (1991 DB)",
      "nasa_jpl_url" : "http://ssd.jpl.nasa.gov/sbdb.cgi?sstr=2014402",
      "absolute_magnitude_h" : 18.6,
      "estimated_diameter" : {
        "kilometers" : {
          "estimated_diameter_min" : 0.5064714588,
          "estimated_diameter_max" : 1.1325046106
        },
        "meters" : {
          "estimated_diameter_min" : 506.4714588346,
          "estimated_diameter_max" : 1132.5046106177
        },
        "miles" : {
          "estimated_diameter_min" : 0.3147066768,
          "estimated_diameter_max" : 0.7037055224
        },
        "feet" : {
          "estimated_diameter_min" : 1661.651821003,
          "estimated_diameter_max" : 3715.566426699
        }
      },
      "is_potentially_hazardous_asteroid" : false,
      "close_approach_data" : [ {
        "close_approach_date" : "2009-03-15",
        "epoch_date_close_approach" : 1237100400000,
        "relative_velocity" : {
          "kilometers_per_second" : "9.8874898263",
          "kilometers_per_hour" : "35594.9633747336",
          "miles_per_hour" : "22117.3259924838"
        },
        "miss_distance" : {
          "astronomical" : "0.1130026033",
          "lunar" : "43.9580154419",
          "kilometers" : "16904950",
          "miles" : "10504249"
        },
        "orbiting_body" : "Earth"
      } ],
      "orbital_data" : {
        "orbit_id" : "49",
        "orbit_determination_date" : "2017-04-06 09:29:48",
        "orbit_uncertainty" : "0",
        "minimum_orbit_intersection" : ".103511",
        "jupiter_tisserand_invariant" : "4.064",
        "epoch_osculation" : "2458000.5",
        "eccentricity" : ".4021605240994597",
        "semi_major_axis" : "1.715478249583462",
        "inclination" : "11.41772448994804",
        "ascending_node_longitude" : "158.2510660240163",
        "orbital_period" : "820.6845374318887",
        "perihelion_distance" : "1.025580617649754",
        "perihelion_argument" : "51.33719251745516",
        "aphelion_distance" : "2.405375881517172",
        "perihelion_time" : "2458217.982299501184",
        "mean_anomaly" : "264.5996064877436",
        "mean_motion" : ".4386581976145464",
        "equinox" : "J2000"
      }
    }, {
      "links" : {
        "self" : "https://api.nasa.gov/neo/rest/v1/neo/3582084?api_key=t0TVs3DtDT2H8Oy2Zy8m2eVrNsAVKAexjcZXUckd"
      },
      "neo_reference_id" : "3582084",
      "name" : "(2011 UF10)",
      "nasa_jpl_url" : "http://ssd.jpl.nasa.gov/sbdb.cgi?sstr=3582084",
      "absolute_magnitude_h" : 23.4,
      "estimated_diameter" : {
        "kilometers" : {
          "estimated_diameter_min" : 0.0555334912,
          "estimated_diameter_max" : 0.1241766613
        },
        "meters" : {
          "estimated_diameter_min" : 55.5334911581,
          "estimated_diameter_max" : 124.1766612574
        },
        "miles" : {
          "estimated_diameter_min" : 0.0345069009,
          "estimated_diameter_max" : 0.0771597762
        },
        "feet" : {
          "estimated_diameter_min" : 182.1964991311,
          "estimated_diameter_max" : 407.4037573197
        }
      },
      "is_potentially_hazardous_asteroid" : false,
      "close_approach_data" : [ {
        "close_approach_date" : "2009-03-15",
        "epoch_date_close_approach" : 1237100400000,
        "relative_velocity" : {
          "kilometers_per_second" : "14.8012872585",
          "kilometers_per_hour" : "53284.6341304888",
          "miles_per_hour" : "33108.9994684695"
        },
        "miss_distance" : {
          "astronomical" : "0.2716573666",
          "lunar" : "105.6747207642",
          "kilometers" : "40639364",
          "miles" : "25252132"
        },
        "orbiting_body" : "Earth"
      } ],
      "orbital_data" : {
        "orbit_id" : "7",
        "orbit_determination_date" : "2017-04-06 08:52:27",
        "orbit_uncertainty" : "8",
        "minimum_orbit_intersection" : ".066461",
        "jupiter_tisserand_invariant" : "4.972",
        "epoch_osculation" : "2455855.5",
        "eccentricity" : ".2951612437567592",
        "semi_major_axis" : "1.289534263160734",
        "inclination" : "9.975552544579608",
        "ascending_node_longitude" : "19.48069130974664",
        "orbital_period" : "534.8694039615282",
        "perihelion_distance" : ".908913726179256",
        "perihelion_argument" : "79.3999424269782",
        "aphelion_distance" : "1.670154800142213",
        "perihelion_time" : "2455923.504648599592",
        "mean_anomaly" : "314.2286896305364",
        "mean_motion" : ".6730614937658574",
        "equinox" : "J2000"
      }
    } ]
  }
}